[{"OBJECT_NAME":"QIANFAN-84","OBJECT_ID":"2025-046M","EPOCH":"2026-03-09T20:55:49.306080","MEAN_MOTION":13.50963389,"ECCENTRICITY":0.00140886,"INCLINATION":88.9752,"RA_OF_ASC_NODE":311.05,"ARG_OF_PERICENTER":230.8415,"MEAN_ANOMALY":129.1485,"EPHEMERIS_TYPE":0,"CLASSIFICATION_TYPE":"U","NORAD_CAT_ID":63170,"ELEMENT_SET_NO":999,"REV_AT_EPOCH":5916,"BSTAR":0.00025350452,"MEAN_MOTION_DOT":1.76e-6,"MEAN_MOTION_DDOT":0},{"OBJECT_NAME":"COSMOS 2251 DEB","OBJECT_ID":"1993-036DW","EPOCH":"2026-03-09T20:42:58.498848","MEAN_MOTION":13.69665705,"ECCENTRICITY":0.03299441,"INCLINATION":74.1098,"RA_OF_ASC_NODE":339.5149,"ARG_OF_PERICENTER":60.11,"MEAN_ANOMALY":303.2364,"EPHEMERIS_TYPE":0,"CLASSIFICATION_TYPE":"U","NORAD_CAT_ID":33917,"ELEMENT_SET_NO":999,"REV_AT_EPOCH":84926,"BSTAR":0.0014205285,"MEAN_MOTION_DOT":1.8e-5,"MEAN_MOTION_DDOT":0}]
